{
  "type": "FeatureCollection",
  "features": [
    {
      "type": "Feature",
      "properties": {
        "norad_id": 33972,
        "name": "COSMOS 2251 DEB",
        "group": "cosmos-2251-debris",
        "lat": 44.877081816968726,
        "lon": -179.29762898156199,
        "alt_km": 748.0183028269994,
        "timestamp": "2025-12-27T03:58:44.540211+00:00",
        "meta_object_name": "COSMOS 2251 DEB",
        "meta_object_id": "1993-036FF",
        "meta_epoch": "2025-12-26T17:49:27.081120",
        "meta_mean_motion": 14.36334391,
        "meta_eccentricity": 0.0124036,
        "meta_inclination": 73.9943,
        "meta_ra_of_asc_node": 164.8742,
        "meta_arg_of_pericenter": 329.4609,
        "meta_mean_anomaly": 49.4605,
        "meta_ephemeris_type": 0,
        "meta_classification_type": "U",
        "meta_norad_cat_id": 33972,
        "meta_element_set_no": 999,
        "meta_rev_at_epoch": 87275,
        "meta_bstar": 0.0015035,
        "meta_mean_motion_dot": 4.777e-05,
        "meta_mean_motion_ddot": 0,
        "tle_line1": "1 33972U 93036FF  25360.74267455  .00004777  00000+0  15035-2 0  9991",
        "tle_line2": "2 33972  73.9943 164.8742 0124036 329.4609  49.4605 14.36334391872756"
      },
      "geometry": {
        "type": "Point",
        "coordinates": [
          -179.29762898156199,
          44.877081816968726
        ]
      }
    },
    {
      "type": "Feature",
      "properties": {
        "norad_id": 33973,
        "name": "COSMOS 2251 DEB",
        "group": "cosmos-2251-debris",
        "lat": -73.9986879028927,
        "lon": -13.818308941114482,
        "alt_km": 715.6235000358492,
        "timestamp": "2025-12-27T03:58:44.540220+00:00",
        "meta_object_name": "COSMOS 2251 DEB",
        "meta_object_id": "1993-036FG",
        "meta_epoch": "2025-12-26T15:48:39.068064",
        "meta_mean_motion": 14.45405845,
        "meta_eccentricity": 0.004737,
        "meta_inclination": 74.0087,
        "meta_ra_of_asc_node": 76.9048,
        "meta_arg_of_pericenter": 252.7865,
        "meta_mean_anomaly": 259.9773,
        "meta_ephemeris_type": 0,
        "meta_classification_type": "U",
        "meta_norad_cat_id": 33973,
        "meta_element_set_no": 999,
        "meta_rev_at_epoch": 88801,
        "meta_bstar": 0.00015886,
        "meta_mean_motion_dot": 5.38e-06,
        "meta_mean_motion_ddot": 0,
        "tle_line1": "1 33973U 93036FG  25360.65878551  .00000538  00000+0  15886-3 0  9993",
        "tle_line2": "2 33973  74.0087  76.9048 0047370 252.7865 259.9773 14.45405845888010"
      },
      "geometry": {
        "type": "Point",
        "coordinates": [
          -13.818308941114482,
          -73.9986879028927
        ]
      }
    },
    {
      "type": "Feature",
      "properties": {
        "norad_id": 33975,
        "name": "COSMOS 2251 DEB",
        "group": "cosmos-2251-debris",
        "lat": 40.59207921303072,
        "lon": 73.5175755725543,
        "alt_km": 1003.835291834871,
        "timestamp": "2025-12-27T03:58:44.540230+00:00",
        "meta_object_name": "COSMOS 2251 DEB",
        "meta_object_id": "1993-036FJ",
        "meta_epoch": "2025-12-26T05:28:58.034208",
        "meta_mean_motion": 14.00550507,
        "meta_eccentricity": 0.0190782,
        "meta_inclination": 73.8014,
        "meta_ra_of_asc_node": 60.7419,
        "meta_arg_of_pericenter": 191.5414,
        "meta_mean_anomaly": 168.1317,
        "meta_ephemeris_type": 0,
        "meta_classification_type": "U",
        "meta_norad_cat_id": 33975,
        "meta_element_set_no": 999,
        "meta_rev_at_epoch": 86018,
        "meta_bstar": 0.00049735,
        "meta_mean_motion_dot": 8.4e-06,
        "meta_mean_motion_ddot": 0,
        "tle_line1": "1 33975U 93036FJ  25360.22844947  .00000840  00000+0  49735-3 0  9996",
        "tle_line2": "2 33975  73.8014  60.7419 0190782 191.5414 168.1317 14.00550507860188"
      },
      "geometry": {
        "type": "Point",
        "coordinates": [
          73.5175755725543,
          40.59207921303072
        ]
      }
    },
    {
      "type": "Feature",
      "properties": {
        "norad_id": 33980,
        "name": "COSMOS 2251 DEB",
        "group": "cosmos-2251-debris",
        "lat": 15.922733327970175,
        "lon": 36.588342903687135,
        "alt_km": 715.8159888647297,
        "timestamp": "2025-12-27T03:58:44.540240+00:00",
        "meta_object_name": "COSMOS 2251 DEB",
        "meta_object_id": "1993-036FP",
        "meta_epoch": "2025-12-26T12:01:53.267808",
        "meta_mean_motion": 14.58725098,
        "meta_eccentricity": 0.002779,
        "meta_inclination": 74.0208,
        "meta_ra_of_asc_node": 33.1654,
        "meta_arg_of_pericenter": 175.7857,
        "meta_mean_anomaly": 312.9834,
        "meta_ephemeris_type": 0,
        "meta_classification_type": "U",
        "meta_norad_cat_id": 33980,
        "meta_element_set_no": 999,
        "meta_rev_at_epoch": 88995,
        "meta_bstar": 0.00056249,
        "meta_mean_motion_dot": 2.61e-05,
        "meta_mean_motion_ddot": 0,
        "tle_line1": "1 33980U 93036FP  25360.50131097  .00002610  00000+0  56249-3 0  9993",
        "tle_line2": "2 33980  74.0208  33.1654 0027790 175.7857 312.9834 14.58725098889951"
      },
      "geometry": {
        "type": "Point",
        "coordinates": [
          36.588342903687135,
          15.922733327970175
        ]
      }
    },
    {
      "type": "Feature",
      "properties": {
        "norad_id": 33982,
        "name": "COSMOS 2251 DEB",
        "group": "cosmos-2251-debris",
        "lat": -46.51056307500478,
        "lon": -45.069789419226005,
        "alt_km": 673.1816259639791,
        "timestamp": "2025-12-27T03:58:44.540249+00:00",
        "meta_object_name": "COSMOS 2251 DEB",
        "meta_object_id": "1993-036FR",
        "meta_epoch": "2025-12-26T15:50:06.911808",
        "meta_mean_motion": 14.60277835,
        "meta_eccentricity": 0.0075585,
        "meta_inclination": 74.0714,
        "meta_ra_of_asc_node": 333.4148,
        "meta_arg_of_pericenter": 14.0577,
        "meta_mean_anomaly": 158.9029,
        "meta_ephemeris_type": 0,
        "meta_classification_type": "U",
        "meta_norad_cat_id": 33982,
        "meta_element_set_no": 999,
        "meta_rev_at_epoch": 89362,
        "meta_bstar": 0.00063659,
        "meta_mean_motion_dot": 3.17e-05,
        "meta_mean_motion_ddot": 0,
        "tle_line1": "1 33982U 93036FR  25360.65980222  .00003170  00000+0  63659-3 0  9998",
        "tle_line2": "2 33982  74.0714 333.4148 0075585  14.0577 158.9029 14.60277835893625"
      },
      "geometry": {
        "type": "Point",
        "coordinates": [
          -45.069789419226005,
          -46.51056307500478
        ]
      }
    },
    {
      "type": "Feature",
      "properties": {
        "norad_id": 33983,
        "name": "COSMOS 2251 DEB",
        "group": "cosmos-2251-debris",
        "lat": 65.73412943787761,
        "lon": -99.42407871512448,
        "alt_km": 722.3239092549766,
        "timestamp": "2025-12-27T03:58:44.540258+00:00",
        "meta_object_name": "COSMOS 2251 DEB",
        "meta_object_id": "1993-036FS",
        "meta_epoch": "2025-12-26T18:05:49.406784",
        "meta_mean_motion": 14.50729838,
        "meta_eccentricity": 0.0021068,
        "meta_inclination": 74.0504,
        "meta_ra_of_asc_node": 120.7234,
        "meta_arg_of_pericenter": 222.4007,
        "meta_mean_anomaly": 256.7747,
        "meta_ephemeris_type": 0,
        "meta_classification_type": "U",
        "meta_norad_cat_id": 33983,
        "meta_element_set_no": 999,
        "meta_rev_at_epoch": 88832,
        "meta_bstar": 0.00062996,
        "meta_mean_motion_dot": 2.457e-05,
        "meta_mean_motion_ddot": 0,
        "tle_line1": "1 33983U 93036FS  25360.75404406  .00002457  00000+0  62996-3 0  9995",
        "tle_line2": "2 33983  74.0504 120.7234 0021068 222.4007 256.7747 14.50729838888325"
      },
      "geometry": {
        "type": "Point",
        "coordinates": [
          -99.42407871512448,
          65.73412943787761
        ]
      }
    },
    {
      "type": "Feature",
      "properties": {
        "norad_id": 33984,
        "name": "COSMOS 2251 DEB",
        "group": "cosmos-2251-debris",
        "lat": -46.97661387964052,
        "lon": -58.65006167419643,
        "alt_km": 693.3583082537098,
        "timestamp": "2025-12-27T03:58:44.540269+00:00",
        "meta_object_name": "COSMOS 2251 DEB",
        "meta_object_id": "1993-036FT",
        "meta_epoch": "2025-12-26T09:19:20.235360",
        "meta_mean_motion": 14.66481335,
        "meta_eccentricity": 0.0022409,
        "meta_inclination": 74.0098,
        "meta_ra_of_asc_node": 320.7441,
        "meta_arg_of_pericenter": 154.6221,
        "meta_mean_anomaly": 13.5669,
        "meta_ephemeris_type": 0,
        "meta_classification_type": "U",
        "meta_norad_cat_id": 33984,
        "meta_element_set_no": 999,
        "meta_rev_at_epoch": 89266,
        "meta_bstar": 0.00087654,
        "meta_mean_motion_dot": 4.845e-05,
        "meta_mean_motion_ddot": 0,
        "tle_line1": "1 33984U 93036FT  25360.38842865  .00004845  00000+0  87654-3 0  9991",
        "tle_line2": "2 33984  74.0098 320.7441 0022409 154.6221  13.5669 14.66481335892668"
      },
      "geometry": {
        "type": "Point",
        "coordinates": [
          -58.65006167419643,
          -46.97661387964052
        ]
      }
    }
  ]
}